{
  "type": "FeatureCollection",
  "features": [
    {
      "type": "Feature",
      "properties": {
        "norad_id": 41384,
        "name": "IRNSS-1F",
        "group": "gnss",
        "lat": -3.3453421854364436,
        "lon": 57.59686453306335,
        "alt_km": 35856.401884146115,
        "timestamp": "2025-12-03T20:47:58.465209+00:00",
        "meta_object_name": "IRNSS-1F",
        "meta_object_id": "2016-015A",
        "meta_epoch": "2025-12-03T01:55:20.988192",
        "meta_mean_motion": 1.00267525,
        "meta_eccentricity": 0.00224023,
        "meta_inclination": 4.8561,
        "meta_ra_of_asc_node": 101.5395,
        "meta_arg_of_pericenter": 179.5147,
        "meta_mean_anomaly": 212.3606,
        "meta_ephemeris_type": 0,
        "meta_classification_type": "U",
        "meta_norad_cat_id": 41384,
        "meta_element_set_no": 999,
        "meta_rev_at_epoch": 3570,
        "meta_bstar": 0,
        "meta_mean_motion_dot": 1.77e-06,
        "meta_mean_motion_ddot": 0,
        "tle_line1": "1 41384U 16015A   25337.08010403  .00000177  00000+0  00000+0 0  9992",
        "tle_line2": "2 41384   4.8561 101.5395 0022402 179.5147 212.3606  1.00267525 35707"
      },
      "geometry": {
        "type": "Point",
        "coordinates": [
          57.59686453306335,
          -3.3453421854364436
        ]
      }
    },
    {
      "type": "Feature",
      "properties": {
        "norad_id": 41434,
        "name": "BEIDOU-2 IGSO-6 (C13)",
        "group": "gnss",
        "lat": 57.32559520536258,
        "lon": 104.29185826683738,
        "alt_km": 36010.724084523514,
        "timestamp": "2025-12-03T20:47:58.465221+00:00",
        "meta_object_name": "BEIDOU-2 IGSO-6 (C13)",
        "meta_object_id": "2016-021A",
        "meta_epoch": "2025-12-01T15:57:35.287200",
        "meta_mean_motion": 1.00256562,
        "meta_eccentricity": 0.00591323,
        "meta_inclination": 59.9483,
        "meta_ra_of_asc_node": 40.0119,
        "meta_arg_of_pericenter": 231.2834,
        "meta_mean_anomaly": 130.8807,
        "meta_ephemeris_type": 0,
        "meta_classification_type": "U",
        "meta_norad_cat_id": 41434,
        "meta_element_set_no": 999,
        "meta_rev_at_epoch": 3550,
        "meta_bstar": 0,
        "meta_mean_motion_dot": -1.55e-06,
        "meta_mean_motion_ddot": 0,
        "tle_line1": "1 41434U 16021A   25335.66499175 -.00000155  00000+0  00000+0 0  9991",
        "tle_line2": "2 41434  59.9483  40.0119 0059132 231.2834 130.8807  1.00256562 35501"
      },
      "geometry": {
        "type": "Point",
        "coordinates": [
          104.29185826683738,
          57.32559520536258
        ]
      }
    },
    {
      "type": "Feature",
      "properties": {
        "norad_id": 41469,
        "name": "IRNSS-1G",
        "group": "gnss",
        "lat": 3.715661781556259,
        "lon": 154.30525136952704,
        "alt_km": 35782.57445143012,
        "timestamp": "2025-12-03T20:47:58.465233+00:00",
        "meta_object_name": "IRNSS-1G",
        "meta_object_id": "2016-027A",
        "meta_epoch": "2025-12-03T10:37:45.642432",
        "meta_mean_motion": 1.00266057,
        "meta_eccentricity": 0.0001387,
        "meta_inclination": 4.7139,
        "meta_ra_of_asc_node": 102.328,
        "meta_arg_of_pericenter": 15.8146,
        "meta_mean_anomaly": 243.3011,
        "meta_ephemeris_type": 0,
        "meta_classification_type": "U",
        "meta_norad_cat_id": 41469,
        "meta_element_set_no": 999,
        "meta_rev_at_epoch": 3521,
        "meta_bstar": 0,
        "meta_mean_motion_dot": -3.17e-06,
        "meta_mean_motion_ddot": 0,
        "tle_line1": "1 41469U 16027A   25337.44288938 -.00000317  00000+0  00000+0 0  9996",
        "tle_line2": "2 41469   4.7139 102.3280 0001387  15.8146 243.3011  1.00266057 35212"
      },
      "geometry": {
        "type": "Point",
        "coordinates": [
          154.30525136952704,
          3.715661781556259
        ]
      }
    },
    {
      "type": "Feature",
      "properties": {
        "norad_id": 41549,
        "name": "GSAT0211 (GALILEO 14)",
        "group": "gnss",
        "lat": -49.138737499060284,
        "lon": 100.59973630965841,
        "alt_km": 23234.190369884338,
        "timestamp": "2025-12-03T20:47:58.465245+00:00",
        "meta_object_name": "GSAT0211 (GALILEO 14)",
        "meta_object_id": "2016-030A",
        "meta_epoch": "2025-12-01T16:54:04.942368",
        "meta_mean_motion": 1.70472896,
        "meta_eccentricity": 0.00038995,
        "meta_inclination": 55.1563,
        "meta_ra_of_asc_node": 227.1275,
        "meta_arg_of_pericenter": 10.5053,
        "meta_mean_anomaly": 349.5828,
        "meta_ephemeris_type": 0,
        "meta_classification_type": "U",
        "meta_norad_cat_id": 41549,
        "meta_element_set_no": 999,
        "meta_rev_at_epoch": 5930,
        "meta_bstar": 0,
        "meta_mean_motion_dot": 3.3e-07,
        "meta_mean_motion_ddot": 0,
        "tle_line1": "1 41549U 16030A   25335.70422387  .00000033  00000+0  00000+0 0  9998",
        "tle_line2": "2 41549  55.1563 227.1275 0003899  10.5053 349.5828  1.70472896 59309"
      },
      "geometry": {
        "type": "Point",
        "coordinates": [
          100.59973630965841,
          -49.138737499060284
        ]
      }
    },
    {
      "type": "Feature",
      "properties": {
        "norad_id": 41550,
        "name": "GSAT0210 (GALILEO 13)",
        "group": "gnss",
        "lat": 55.166103014791084,
        "lon": -44.460497904076476,
        "alt_km": 23219.080368982886,
        "timestamp": "2025-12-03T20:47:58.465256+00:00",
        "meta_object_name": "GSAT0210 (GALILEO 13)",
        "meta_object_id": "2016-030B",
        "meta_epoch": "2025-12-03T03:14:10.364352",
        "meta_mean_motion": 1.70473449,
        "meta_eccentricity": 0.0001223,
        "meta_inclination": 55.1551,
        "meta_ra_of_asc_node": 227.0861,
        "meta_arg_of_pericenter": 241.4534,
        "meta_mean_anomaly": 118.6225,
        "meta_ephemeris_type": 0,
        "meta_classification_type": "U",
        "meta_norad_cat_id": 41550,
        "meta_element_set_no": 999,
        "meta_rev_at_epoch": 5932,
        "meta_bstar": 0,
        "meta_mean_motion_dot": 3.9e-07,
        "meta_mean_motion_ddot": 0,
        "tle_line1": "1 41550U 16030B   25337.13484218  .00000039  00000+0  00000+0 0  9996",
        "tle_line2": "2 41550  55.1551 227.0861 0001223 241.4534 118.6225  1.70473449 59329"
      },
      "geometry": {
        "type": "Point",
        "coordinates": [
          -44.460497904076476,
          55.166103014791084
        ]
      }
    },
    {
      "type": "Feature",
      "properties": {
        "norad_id": 41586,
        "name": "BEIDOU-2 G7 (C03)",
        "group": "gnss",
        "lat": 1.6078669926617406,
        "lon": 135.44459629537843,
        "alt_km": 35777.586394865546,
        "timestamp": "2025-12-03T20:47:58.465286+00:00",
        "meta_object_name": "BEIDOU-2 G7 (C03)",
        "meta_object_id": "2016-037A",
        "meta_epoch": "2025-12-03T10:51:22.384224",
        "meta_mean_motion": 1.002716,
        "meta_eccentricity": 0.0004402,
        "meta_inclination": 1.7326,
        "meta_ra_of_asc_node": 67.6893,
        "meta_arg_of_pericenter": 4.5231,
        "meta_mean_anomaly": 273.6588,
        "meta_ephemeris_type": 0,
        "meta_classification_type": "U",
        "meta_norad_cat_id": 41586,
        "meta_element_set_no": 999,
        "meta_rev_at_epoch": 492,
        "meta_bstar": 0,
        "meta_mean_motion_dot": -3.36e-06,
        "meta_mean_motion_ddot": 0,
        "tle_line1": "1 41586U 16037A   25337.45234241 -.00000336  00000+0  00000+0 0  9997",
        "tle_line2": "2 41586   1.7326  67.6893 0004402   4.5231 273.6588  1.00271600  4920"
      },
      "geometry": {
        "type": "Point",
        "coordinates": [
          135.44459629537843,
          1.6078669926617406
        ]
      }
    },
    {
      "type": "Feature",
      "properties": {
        "norad_id": 41589,
        "name": "EUTELSAT 117 WEST B (WAAS/PRN 131)",
        "group": "gnss",
        "lat": 0.01649259539161182,
        "lon": -92.08675752044358,
        "alt_km": 35787.26351903304,
        "timestamp": "2025-12-03T20:47:58.465299+00:00",
        "meta_object_name": "EUTELSAT 117 WEST B (WAAS/PRN 131)",
        "meta_object_id": "2016-038B",
        "meta_epoch": "2025-12-02T23:30:03.060576",
        "meta_mean_motion": 1.00267861,
        "meta_eccentricity": 1.928e-05,
        "meta_inclination": 0.0046,
        "meta_ra_of_asc_node": 146.1916,
        "meta_arg_of_pericenter": 23.0604,
        "meta_mean_anomaly": 138.3396,
        "meta_ephemeris_type": 0,
        "meta_classification_type": "U",
        "meta_norad_cat_id": 41589,
        "meta_element_set_no": 999,
        "meta_rev_at_epoch": 3469,
        "meta_bstar": 0,
        "meta_mean_motion_dot": 8e-08,
        "meta_mean_motion_ddot": 0,
        "tle_line1": "1 41589U 16038B   25336.97920209  .00000008  00000+0  00000+0 0  9998",
        "tle_line2": "2 41589   0.0046 146.1916 0000192  23.0604 138.3396  1.00267861 34690"
      },
      "geometry": {
        "type": "Point",
        "coordinates": [
          -92.08675752044358,
          0.01649259539161182
        ]
      }
    }
  ]
}